H1 CPF  1  DLR 2021 03 03 10  5622 technosat            
H2  1704205 6203    42829 2021 03 03 00 00 00 2021 03 10 00 00 00    60 1 1  0 0 0
H9
10 0 59278  50400.000000  0       2034505.153      -6600864.708      -1035604.935
10 0 59278  50460.000000  0       1963427.438      -6675920.156       -589445.165
10 0 59278  50520.000000  0       1883575.794      -6722288.869       -140793.145
10 0 59278  50580.000000  0       1795533.960      -6739688.865        308454.215
10 0 59278  50640.000000  0       1699922.552      -6727965.855        756395.666
10 0 59278  50700.000000  0       1597395.390      -6687094.552       1201133.913
10 0 59278  50760.000000  0       1488635.597      -6617179.220       1640783.991
10 0 59278  50820.000000  0       1374351.565      -6518453.421       2073481.481
10 0 59278  50880.000000  0       1255272.856      -6391279.306       2497390.519
10 0 59278  50940.000000  0       1132145.963      -6236146.337       2910711.811
10 0 59278  51000.000000  0       1005729.995      -6053669.331       3311690.436
10 0 59278  51060.000000  0        876792.355      -5844585.928       3698623.430
10 0 59278  51120.000000  0        746104.412      -5609753.478       4069867.121
10 0 59278  51180.000000  0        614437.183      -5350145.416       4423844.193
10 0 59278  51240.000000  0        482557.012      -5066847.067       4759050.501
10 0 59278  51300.000000  0        351221.317      -4761050.884       5074061.505
10 0 59278  51360.000000  0        221174.456      -4434051.228       5367538.327
10 0 59278  51420.000000  0         93143.730      -4087238.688       5638233.451
10 0 59278  51480.000000  0        -32164.506      -3722093.925       5884996.013
10 0 59278  51540.000000  0       -154068.585      -3340181.115       6106776.594
10 0 59278  51600.000000  0       -271915.115      -2943141.082       6302631.536
10 0 59278  51660.000000  0       -385082.374      -2532684.160       6471726.820
10 0 59278  51720.000000  0       -492983.489      -2110582.776       6613341.550
10 0 59278  51780.000000  0       -595069.402      -1678663.743       6726870.977
10 0 59278  51840.000000  0       -690831.618      -1238800.301       6811829.083
10 0 59278  51900.000000  0       -779804.707       -792903.906       6867850.674
10 0 59278  51960.000000  0       -861568.581       -342915.850       6894692.953
10 0 59278  52020.000000  0       -935750.499        109201.239       6892236.576
10 0 59278  52080.000000  0      -1002026.782        561472.010       6860486.243
10 0 59278  52140.000000  0      -1060124.250       1011917.094       6799570.747
10 0 59278  52200.000000  0      -1109821.368       1458561.805       6709742.545
10 0 59278  52260.000000  0      -1150949.123       1899444.880       6591376.851
10 0 59278  52320.000000  0      -1183391.607       2332627.195       6444970.189
10 0 59278  52380.000000  0      -1207086.315       2756200.393       6271138.480
10 0 59278  52440.000000  0      -1222024.171       3168295.474       6070614.636
10 0 59278  52500.000000  0      -1228249.232       3567091.246       5844245.586
10 0 59278  52560.000000  0      -1225858.054       3950822.529       5592988.865
10 0 59278  52620.000000  0      -1214998.802       4317788.249       5317908.780
10 0 59278  52680.000000  0      -1195870.104       4666359.292       5020172.028
10 0 59278  52740.000000  0      -1168719.625       4994986.084       4701042.838
10 0 59278  52800.000000  0      -1133842.304       5302205.846       4361877.599
10 0 59278  52860.000000  0      -1091578.288       5586649.359       4004119.061
10 0 59278  52920.000000  0      -1042310.705       5847047.319       3629290.280
10 0 59278  52980.000000  0       -986463.244       6082236.446       3238988.202
10 0 59278  53040.000000  0       -924497.470       6291165.193       2834876.687
10 0 59278  53100.000000  0       -856909.796       6472898.773       2418679.085
10 0 59278  53160.000000  0       -784228.243       6626623.496       1992170.640
10 0 59278  53220.000000  0       -707009.113       6751650.657       1557170.706
10 0 59278  53280.000000  0       -625833.455       6847419.788       1115534.672
10 0 59278  53340.000000  0       -541303.391       6913501.265        669145.753
10 0 59278  53400.000000  0       -454038.335       6949598.318        219906.666
10 0 59278  53460.000000  0       -364671.116       6955548.407       -230268.850
10 0 59278  53520.000000  0       -273844.031       6931323.890       -679464.603
10 0 59278  53580.000000  0       -182204.847       6877031.939      -1125770.500
10 0 59278  53640.000000  0        -90402.829       6792913.726      -1567290.978
10 0 59278  53700.000000  0           915.197       6679343.001      -2002153.269
10 0 59278  53760.000000  0         91108.754       6536824.064      -2428515.503
10 0 59278  53820.000000  0        179547.559       6365989.155      -2844574.634
10 0 59278  53880.000000  0        265615.308       6167595.250      -3248574.161
10 0 59278  53940.000000  0        348713.357       5942520.249      -3638811.579
10 0 59278  54000.000000  0        428264.275       5691758.631      -4013645.513
10 0 59278  54060.000000  0        503715.258       5416416.599      -4371502.532
10 0 59278  54120.000000  0        574541.368       5117706.727      -4710883.578
10 0 59278  54180.000000  0        640248.603       4796942.198      -5030370.010
10 0 59278  54240.000000  0        700376.767       4455530.640      -5328629.248
10 0 59278  54300.000000  0        754502.124       4094967.596      -5604420.010
10 0 59278  54360.000000  0        802239.806       3716829.672      -5856597.119
10 0 59278  54420.000000  0        843245.991       3322767.368      -6084115.867
10 0 59278  54480.000000  0        877219.861       2914497.688      -6286035.915
10 0 59278  54540.000000  0        903905.320       2493796.528      -6461524.719
10 0 59278  54600.000000  0        923092.440       2062490.952      -6609860.493
10 0 59278  54660.000000  0        934618.663       1622451.340      -6730434.832
10 0 59278  54720.000000  0        938369.720       1175583.321      -6822754.881
10 0 59278  54780.000000  0        934280.313        723819.668      -6886444.994
10 0 59278  54840.000000  0        922334.557        269112.143      -6921248.032
10 0 59278  54900.000000  0        902566.129       -186576.774      -6927026.190
10 0 59278  54960.000000  0        875058.126       -641282.113      -6903761.319
10 0 59278  55020.000000  0        839942.703      -1093044.569      -6851554.846
10 0 59278  55080.000000  0        797400.460      -1539918.634      -6770627.295
10 0 59278  55140.000000  0        747659.563      -1979980.621      -6661317.399
10 0 59278  55200.000000  0        690994.652      -2411336.636      -6524080.918
10 0 59278  55260.000000  0        627725.453      -2832130.588      -6359489.017
10 0 59278  55320.000000  0        558215.101      -3240552.080      -6168226.092
10 0 59278  55380.000000  0        482868.264      -3634844.045      -5951087.118
10 0 59278  55440.000000  0        402129.070      -4013310.182      -5708974.648
10 0 59278  55500.000000  0        316478.801      -4374322.197      -5442895.419
10 0 59278  55560.000000  0        226433.345      -4716326.838      -5153956.547
10 0 59278  55620.000000  0        132540.440      -5037852.672      -4843361.299
10 0 59278  55680.000000  0         35376.710      -5337516.572      -4512404.446
10 0 59278  55740.000000  0        -64455.482      -5614029.884      -4162467.201
10 0 59278  55800.000000  0       -166331.339      -5866204.204      -3795011.745
10 0 59278  55860.000000  0       -269607.102      -6092956.745      -3411575.399
10 0 59278  55920.000000  0       -373623.661      -6293315.290      -3013764.472
10 0 59278  55980.000000  0       -477710.298      -6466422.733      -2603247.759
10 0 59278  56040.000000  0       -581188.523      -6611541.141      -2181749.676
10 0 59278  56100.000000  0       -683375.993      -6728055.273      -1751043.075
10 0 59278  56160.000000  0       -783590.484      -6815475.516      -1312941.810
10 0 59278  56220.000000  0       -881153.905      -6873440.278       -869293.082
10 0 59278  56280.000000  0       -975396.316      -6901717.768       -421969.580
10 0 59278  56340.000000  0      -1065659.939      -6900207.170         27138.509
10 0 59278  56400.000000  0      -1151303.134      -6868939.235        476131.598
10 0 59278  56460.000000  0      -1231704.337      -6808076.247        923108.901
10 0 59278  56520.000000  0      -1306265.899      -6717911.356       1366176.682
10 0 59278  56580.000000  0      -1374417.808      -6598867.269       1803456.495
10 0 59278  56640.000000  0      -1435621.273      -6451494.307       2233093.376
10 0 59278  56700.000000  0      -1489372.157      -6276467.835       2653263.918
10 0 59278  56760.000000  0      -1535204.242      -6074585.119       3062184.216
10 0 59278  56820.000000  0      -1572692.260      -5846761.575       3458117.643
10 0 59278  56880.000000  0      -1601454.687      -5594026.435       3839382.358
10 0 59278  56940.000000  0      -1621156.327      -5317517.912       4204358.520
10 0 59278  57000.000000  0      -1631510.664      -5018477.917       4551495.216
10 0 59278  57060.000000  0      -1632281.962      -4698246.353       4879317.110
10 0 59278  57120.000000  0      -1623287.105      -4358254.940       5186430.797
10 0 59278  57180.000000  0      -1604397.141      -4000020.586       5471530.800
10 0 59278  57240.000000  0      -1575538.523      -3625138.329       5733405.093
10 0 59278  57300.000000  0      -1536694.027      -3235274.018       5970940.148
10 0 59278  57360.000000  0      -1487903.363      -2832156.750       6183125.557
10 0 59278  57420.000000  0      -1429263.484      -2417571.088       6369058.210
10 0 59278  57480.000000  0      -1360928.622      -1993349.119       6527946.063
10 0 59278  57540.000000  0      -1283110.019      -1561362.268       6659111.502
99
